NORAD_CAT_ID,OBJECT_NAME,OBJECT_TYPE,EPOCH,MEAN_MOTION,ECCENTRICITY,INCLINATION,RA_OF_ASC_NODE,ARG_OF_PERICENTER,MEAN_ANOMALY,BSTAR,MEAN_MOTION_DOT,MEAN_MOTION_DDOT,TLE_LINE0,TLE_LINE1,TLE_LINE2,SEMIMAJOR_AXIS,PERIOD,APOGEE,PERIGEE,DECAYED
52360.0,STARLINK-3824,PAYLOAD,2022-08-08 14:00:01,15.08865831,0.0001626,53.2171,305.9339,52.4204,106.2764,-0.00037451,-6.248e-05,0.0,0 STARLINK-3824,1 52360U 22045AF  22220.58335648 -.00006248  00000-0 -37451-3 0  9994,2 52360  53.2171 305.9339 0001626  52.4204 106.2764 15.08865831 18270,6917.801,95.436,540.7909999999998,538.5419999999998,0.0
52360.0,STARLINK-3824,PAYLOAD,2022-08-08 22:00:00,15.08883821,0.0001554999999999,53.2168,304.4364,54.1821,116.0838,-0.0039178,-0.00062176,0.0,0 STARLINK-3824,1 52360U 22045AF  22220.91667824 -.00062176  00000-0 -39178-2 0  9994,2 52360  53.2168 304.4364 0001555  54.1821 116.0838 15.08883821  1309,6917.746,95.435,540.687,538.536,0.0
52360.0,STARLINK-3824,PAYLOAD,2022-08-09 14:00:01,15.08835384,0.0001612,53.2169,301.445,50.0216,143.4508,-0.0021295999999999,-0.00034017,0.0,0 STARLINK-3824,1 52360U 22045AF  22221.58334491 -.00034017  00000-0 -21296-2 0  9994,2 52360  53.2169 301.4450 0001612  50.0216 143.4508 15.08835384  1309,6917.894,95.438,540.875,538.644,0.0
52360.0,STARLINK-3824,PAYLOAD,2022-08-09 22:00:00,15.08817908,0.000152,53.2167,299.9474,51.2961,153.756,-0.0030868,-0.00049051,0.0,0 STARLINK-3824,1 52360U 22045AF  22221.91667824 -.00049051  00000-0 -30868-2 0  9999,2 52360  53.2167 299.9474 0001520  51.2961 153.7560 15.08817908  1306,6917.948,95.439,540.864,538.761,0.0
52360.0,STARLINK-3824,PAYLOAD,2022-08-10 14:00:01,15.08784818,0.0001732,53.2168,296.9563,49.8063,178.3413,0.0021054,0.00033328,0.0,0 STARLINK-3824,1 52360U 22045AF  22222.58334491  .00033328  00000-0  21054-2 0  9999,2 52360  53.2168 296.9563 0001732  49.8063 178.3413 15.08784818  1307,6918.049,95.441,541.112,538.716,0.0
52360.0,STARLINK-3824,PAYLOAD,2022-08-10 17:07:18,15.08792231,0.0001706999999999,53.2166,296.3724,48.0747,166.95,0.0020263,0.00032066,0.0,0 STARLINK-3824,1 52360U 22045AF  22222.71341435  .00032066  00000-0  20263-2 0  9999,2 52360  53.2166 296.3724 0001707  48.0747 166.9500 15.08792231 18597,6918.026,95.441,541.072,538.71,0.0
52360.0,STARLINK-3824,PAYLOAD,2022-08-10 22:00:00,15.08817888,0.0001606,53.2168,295.4587,51.5565,188.133,-0.0011924,-0.00019203,0.0,0 STARLINK-3824,1 52360U 22045AF  22222.91667824 -.00019203  00000-0 -11924-2 0  9998,2 52360  53.2168 295.4587 0001606  51.5565 188.1330 15.08817888  1305,6917.948,95.439,540.924,538.702,0.0
52360.0,STARLINK-3824,PAYLOAD,2022-08-11 14:00:01,15.08828082,0.0001716,53.2169,292.4675,46.2882,216.6005,0.0023685,0.00037596,0.0,0 STARLINK-3824,1 52360U 22045AF  22223.58334491  .00037596  00000-0  23685-2 0  9993,2 52360  53.2169 292.4675 0001716  46.2882 216.6005 15.08828082  1300,6917.917,95.438,540.969,538.595,0.0
52360.0,STARLINK-3824,PAYLOAD,2022-08-11 22:00:00,15.08861016,0.000158,53.2169,290.9697,48.6309,225.8577,-0.00081756,-0.00013283,0.0,0 STARLINK-3824,1 52360U 22045AF  22223.91667824 -.00013283  00000-0 -81756-3 0  9992,2 52360  53.2169 290.9697 0001580  48.6309 225.8577 15.08861016 18775,6917.816,95.436,540.774,538.5880000000002,0.0
52360.0,STARLINK-3824,PAYLOAD,2022-08-12 06:00:00,15.08847313,0.0001659,53.2167,289.4701,55.4049,230.6551,-4.7988e-06,-3.64e-06,0.0,0 STARLINK-3824,1 52360U 22045AF  22224.25001157 -.00000364  00000-0 -47988-5 0  9998,2 52360  53.2167 289.4701 0001659  55.4049 230.6551 15.08847313 18822,6917.858,95.437,540.871,538.575,0.0
52360.0,STARLINK-3824,PAYLOAD,2022-08-12 14:00:01,15.08823615,0.0001844999999999,53.2167,287.9785,48.6387,249.0245,0.0027726,0.00044095,0.0,0 STARLINK-3824,1 52360U 22045AF  22224.58334491  .00044095  00000-0  27726-2 0  9996,2 52360  53.2167 287.9785 0001845  48.6387 249.0245 15.08823615  1301,6917.93,95.439,541.072,538.519,0.0
52360.0,STARLINK-3824,PAYLOAD,2022-08-12 22:00:01,15.08852137,0.0001676999999999,53.2167,286.4806,51.6877,257.6334,-0.00026254,-4.465e-05,0.0,0 STARLINK-3824,1 52360U 22045AF  22224.91668981 -.00004465  00000-0 -26254-3 0  9992,2 52360  53.2167 286.4806 0001677  51.6877 257.6334 15.08852137  1305,6917.843000000003,95.437,540.868,538.548,0.0
52360.0,STARLINK-3824,PAYLOAD,2022-08-13 06:00:02,15.08879238,0.0001618,53.2167,284.9841,54.0476,266.8705,-0.0032143,-0.00051136,0.0,0 STARLINK-3824,1 52360U 22045AF  22225.25002315 -.00051136  00000-0 -32143-2 0  9993,2 52360  53.2167 284.9841 0001618  54.0476 266.8705 15.08879238 18970,6917.76,95.435,540.745,538.506,0.0
52360.0,STARLINK-3824,PAYLOAD,2022-08-13 14:00:01,15.08808378,0.0001738,53.2164,283.4892,45.9171,286.5638,0.0025946,0.00041211,0.0,0 STARLINK-3824,1 52360U 22045AF  22225.58334491  .00041211  00000-0  25946-2 0  9996,2 52360  53.2164 283.4892 0001738  45.9171 286.5638 15.08808378  1301,6917.977,95.44,541.044,538.64,0.0
52360.0,STARLINK-3824,PAYLOAD,2022-08-13 22:00:00,15.08829594,0.0001569,53.2162,281.9913,50.0329,294.0266,8.0196e-05,9.88e-06,0.0,0 STARLINK-3824,1 52360U 22045AF  22225.91667824  .00000988  00000-0  80196-4 0  9998,2 52360  53.2162 281.9913 0001569  50.0329 294.0266 15.08829594  1304,6917.9119999999975,95.438,540.863,538.692,0.0
52360.0,STARLINK-3824,PAYLOAD,2022-08-14 14:00:01,15.08823485,0.0001723,53.2158,278.9999,46.2839,320.9715,0.0027102,0.00043089,0.0,0 STARLINK-3824,1 52360U 22045AF  22226.58334491  .00043089  00000-0  27102-2 0  9998,2 52360  53.2158 278.9999 0001723  46.2839 320.9715 15.08823485  1305,6917.931,95.439,540.988,538.604,0.0
52360.0,STARLINK-3824,PAYLOAD,2022-08-14 22:00:00,15.0884157,0.0001569,53.2156,277.5018,51.6501,327.2062,0.00077131,0.00012009,0.0,0 STARLINK-3824,1 52360U 22045AF  22226.91667824  .00012009  00000-0  77131-3 0  9990,2 52360  53.2156 277.5018 0001569  51.6501 327.2062 15.08841570  1304,6917.876,95.437,540.826,538.655,0.0
52360.0,STARLINK-3824,PAYLOAD,2022-08-15 00:00:00,15.08830836,0.000154,53.2155,277.1274,52.6037,59.1557,0.002084,0.00033026,0.0,0 STARLINK-3824,1 52360U 22045AF  22227.00001157  .00033026  00000-0  20840-2 0  9998,2 52360  53.2155 277.1274 0001540  52.6037  59.1557 15.08830836 19242,6917.908,95.438,540.839,538.7080000000002,0.0
52360.0,STARLINK-3824,PAYLOAD,2022-08-15 14:00:01,15.08806084,0.0001815,53.2153,274.5105,49.3568,352.7047,0.002692,0.00042776,0.0,0 STARLINK-3824,1 52360U 22045AF  22227.58334491  .00042776  00000-0  26920-2 0  9998,2 52360  53.2153 274.5105 0001815  49.3568 352.7047 15.08806084  1303,6917.984,95.44,541.105,538.5930000000002,0.0
52360.0,STARLINK-3824,PAYLOAD,2022-08-15 16:00:00,15.08824659,0.0001813,53.215,274.136,48.7675,86.1818,0.0007166,0.0001113,0.0,0 STARLINK-3824,1 52360U 22045AF  22227.66667824  .00011130  00000-0  71660-3 0  9998,2 52360  53.2150 274.1360 0001813  48.7675  86.1818 15.08824659 19344,6917.927,95.439,541.047,538.538,0.0
52360.0,STARLINK-3824,PAYLOAD,2022-08-15 22:00:00,15.08818193,0.0001665,53.2152,273.0123,54.8617,358.7798,0.001214,0.00019074,0.0,0 STARLINK-3824,1 52360U 22045AF  22227.91667824  .00019074  00000-0  12140-2 0  9998,2 52360  53.2152 273.0123 0001665  54.8617 358.7798 15.08818193  1308,6917.946999999999,95.439,540.964,538.66,0.0
52360.0,STARLINK-3824,PAYLOAD,2022-08-16 14:00:01,15.08816393,0.0001853,53.2149,270.0211,49.2407,27.5746,0.0026825,0.00042635,0.0,0 STARLINK-3824,1 52360U 22045AF  22228.58334491  .00042635  00000-0  26825-2 0  9997,2 52360  53.2149 270.0211 0001853  49.2407  27.5746 15.08816393  1307,6917.953,95.439,541.099,538.536,0.0
52360.0,STARLINK-3824,PAYLOAD,2022-08-16 22:00:00,15.08824806,0.0001709,53.215,268.5228,54.7256,33.683,0.0016347999999999,0.00025815,0.0,0 STARLINK-3824,1 52360U 22045AF  22228.91667824  .00025815  00000-0  16348-2 0  9993,2 52360  53.2150 268.5228 0001709  54.7256  33.6830 15.08824806 19536,6917.927,95.439,540.974,538.61,0.0
52360.0,STARLINK-3824,PAYLOAD,2022-08-17 16:00:00,15.08865028,0.0001883,53.215,265.1569,49.0043,155.489,-0.0025491,-0.00040657,0.0,0 STARLINK-3824,1 52360U 22045AF  22229.66667824 -.00040657  00000-0 -25491-2 0  9998,2 52360  53.2150 265.1569 0001883  49.0043 155.4890 15.08865028  1307,6917.804,95.436,540.972,538.366,0.0
52360.0,STARLINK-3824,PAYLOAD,2022-08-18 08:00:01,15.08835457,0.0001891,53.2153,262.164,50.2073,177.4778,-0.00098465,-0.00015923,0.0,0 STARLINK-3824,1 52360U 22045AF  22230.33334491 -.00015923  00000-0 -98465-3 0  9995,2 52360  53.2153 262.1640 0001891  50.2073 177.4778 15.08835457 19742,6917.894,95.438,541.067,538.451,0.0
52360.0,STARLINK-3824,PAYLOAD,2022-08-18 14:00:01,15.0882108,0.0001943,53.2154,261.04200000000003,46.7233,99.657,0.0023686,0.0003759,0.0,0 STARLINK-3824,1 52360U 22045AF  22230.58334491  .00037590  00000-0  23686-2 0  9996,2 52360  53.2154 261.0420 0001943  46.7233  99.6570 15.08821080  1308,6917.938,95.439,541.1469999999998,538.4590000000002,0.0
52360.0,STARLINK-3824,PAYLOAD,2022-08-18 22:00:00,15.08822025,0.0001785,53.2157,259.5438,52.0128,105.9639,0.0024549,0.00038979,0.0,0 STARLINK-3824,1 52360U 22045AF  22230.91667824  .00038979  00000-0  24549-2 0  9993,2 52360  53.2157 259.5438 0001785  52.0128 105.9639 15.08822025  1306,6917.935,95.439,541.035,538.565,0.0
52360.0,STARLINK-3824,PAYLOAD,2022-08-19 14:00:01,15.08825696,0.0001952,53.2158,256.5527,45.5376,135.6384,0.00057783,8.917e-05,0.0,0 STARLINK-3824,1 52360U 22045AF  22231.58334491  .00008917  00000-0  57783-3 0  9994,2 52360  53.2158 256.5527 0001952  45.5376 135.6384 15.08825696  1305,6917.924,95.438,541.139,538.439,0.0
52360.0,STARLINK-3824,PAYLOAD,2022-08-19 16:00:00,15.08843674,0.0001889,53.2158,256.1782,46.0657,228.0007,-0.0018945999999999,-0.00030318,0.0,0 STARLINK-3824,1 52360U 22045AF  22231.66667824 -.00030318  00000-0 -18946-2 0  9991,2 52360  53.2158 256.1782 0001889  46.0657 228.0007 15.08843674 19945,6917.869000000002,95.437,541.0409999999998,538.427,0.0
